{"type": "FeatureCollection", "attribution": "Building footprints (c) OpenStreetMap contributors, ODbL", "features": [{"type": "Feature", "geometry": {"type": "Polygon", "coordinates": [[[-1.8904371, 52.4873216], [-1.8904527, 52.4873598], [-1.8904692, 52.4874037], [-1.8904109, 52.487412], [-1.8903933, 52.48737], [-1.8903788, 52.4873355], [-1.8897727, 52.4874328], [-1.8897114, 52.4874436], [-1.8896892, 52.4873895], [-1.8895672, 52.4874103], [-1.8893039, 52.4868403], [-1.8893678, 52.4868325], [-1.8893345, 52.4867656], [-1.8894471, 52.48675], [-1.8894222, 52.4866911], [-1.8898578, 52.486624], [-1.8902465, 52.486569], [-1.8907562, 52.4864868], [-1.8907823, 52.486564], [-1.8908863, 52.486548], [-1.8908983, 52.4865697], [-1.8909453, 52.4865656], [-1.8909654, 52.486613], [-1.891007, 52.486613], [-1.8911936, 52.487072], [-1.89115, 52.4870771], [-1.891162, 52.4871437], [-1.8910392, 52.4871652], [-1.8910619, 52.4872096], [-1.8909922, 52.4872156], [-1.8910044, 52.4872378], [-1.8904371, 52.4873216]], [[-1.8908805, 52.4870514], [-1.890732, 52.4866937], [-1.8903062, 52.4867642], [-1.8904618, 52.4871188], [-1.8908805, 52.4870514]], [[-1.8902269, 52.4871566], [-1.890078, 52.4868014], [-1.8896522, 52.4868719], [-1.8898072, 52.4872242], [-1.8902269, 52.4871566]]]}, "properties": {"category": "destination", "name": "Aston University", "heightM": 40.0, "baseM": 0.0}}, {"type": "Feature", "geometry": {"type": "Polygon", "coordinates": [[[-1.887543, 52.4862174], [-1.8875378, 52.486205], [-1.8877526, 52.4861716], [-1.8877975, 52.4862784], [-1.8878429, 52.4862714], [-1.8879018, 52.4862622], [-1.888544, 52.4861621], [-1.8887447, 52.4861375], [-1.8887739, 52.4862275], [-1.8889418, 52.4866173], [-1.888736, 52.4866481], [-1.8887238, 52.4866189], [-1.8886666, 52.4866278], [-1.888697, 52.4867002], [-1.8885504, 52.486723], [-1.8885417, 52.4867023], [-1.8881812, 52.4867585], [-1.8881886, 52.4867762], [-1.8880718, 52.4867944], [-1.8880612, 52.4867693], [-1.8877924, 52.4868112], [-1.887543, 52.4862174]], [[-1.8885211, 52.4863], [-1.887954, 52.4863869], [-1.8880501, 52.4866192], [-1.8886171, 52.4865323], [-1.8885211, 52.4863]]]}, "properties": {"category": "destination", "name": "Aston Business School", "heightM": 16.0, "baseM": 0.0}}, {"type": "Feature", "geometry": {"type": "Polygon", "coordinates": [[[-1.885786, 52.4833341], [-1.8857971, 52.4833549], [-1.8859168, 52.483331], [-1.8859503, 52.4833243], [-1.8859269, 52.4834373], [-1.885969, 52.4834405], [-1.8861469, 52.4834623], [-1.8862084, 52.4835449], [-1.8863225, 52.4835251], [-1.8864592, 52.4835002], [-1.8864085, 52.4834046], [-1.8864142, 52.4832338], [-1.8866059, 52.4832321], [-1.8865848, 52.4832757], [-1.8866249, 52.4833283], [-1.8867756, 52.4832842], [-1.8868795, 52.4832497], [-1.88675, 52.4830808], [-1.88666, 52.4831071], [-1.8866195, 52.4831942], [-1.8864113, 52.4831929], [-1.8863918, 52.4828367], [-1.8874606, 52.4826642], [-1.8872517, 52.4823044], [-1.8861587, 52.4824959], [-1.8859418, 52.4825348], [-1.8872245, 52.4823279], [-1.8848152, 52.4827412], [-1.884929, 52.4829722], [-1.8849851, 52.4830797], [-1.8856935, 52.4829526], [-1.8857271, 52.4830013], [-1.8858031, 52.4830069], [-1.8858737, 52.4830251], [-1.8859333, 52.4830544], [-1.8859774, 52.4830925], [-1.8860024, 52.4831366], [-1.8860058, 52.4831875], [-1.885984, 52.4832366], [-1.885939, 52.4832795], [-1.8858749, 52.4833122], [-1.885786, 52.4833341]]]}, "properties": {"category": "destination", "name": "Millennium Point", "heightM": 12.8, "baseM": 0.0}}, {"type": "Feature", "geometry": {"type": "Polygon", "coordinates": [[[-1.8843134, 52.4849804], [-1.8841649, 52.4849353], [-1.8836121, 52.4848122], [-1.8835508, 52.4847981], [-1.8836048, 52.4847023], [-1.8842879, 52.4848412], [-1.8844224, 52.4848898], [-1.8843134, 52.4849804]]]}, "properties": {"category": "destination", "name": "", "heightM": 22.0, "baseM": 0.0}}, {"type": "Feature", "geometry": {"type": "Polygon", "coordinates": [[[-1.8837248, 52.4854598], [-1.8834056, 52.4852067], [-1.8836121, 52.4848122], [-1.8843134, 52.4849804], [-1.8842505, 52.4850531], [-1.8844034, 52.4850907], [-1.8837248, 52.4854598]]]}, "properties": {"category": "destination", "name": "STEAMhouse", "heightM": 22.0, "baseM": 0.0}}, {"type": "Feature", "geometry": {"type": "Polygon", "coordinates": [[[-1.8833729, 52.4829181], [-1.8833958, 52.4829653], [-1.8836436, 52.4834768], [-1.8830478, 52.4835838], [-1.8830267, 52.4835404], [-1.8829888, 52.4834629], [-1.8828222, 52.4834905], [-1.8828433, 52.4835378], [-1.8827428, 52.4835546], [-1.8827069, 52.4834442], [-1.8825889, 52.4834655], [-1.8825216, 52.4834763], [-1.8826211, 52.4836892], [-1.8819322, 52.4837841], [-1.881803, 52.4835488], [-1.8819067, 52.4834654], [-1.8818838, 52.4832339], [-1.8821203, 52.483185], [-1.8819716, 52.4828858], [-1.8832279, 52.482619], [-1.8833729, 52.4829181]]]}, "properties": {"category": "destination", "name": "BCU - Curzon Building", "heightM": 19.2, "baseM": 0.0}}, {"type": "Feature", "geometry": {"type": "Polygon", "coordinates": [[[-1.8849851, 52.4830797], [-1.8848438, 52.4831033], [-1.8846108, 52.4831451], [-1.884551, 52.4831522], [-1.8847615, 52.4835962], [-1.8842426, 52.4836859], [-1.884272, 52.4837544], [-1.8841074, 52.4837875], [-1.8840222, 52.483606], [-1.8836959, 52.4829678], [-1.8839166, 52.4829241], [-1.884514, 52.4828057], [-1.8845781, 52.4830277], [-1.8846187, 52.483023], [-1.8847903, 52.4829941], [-1.884929, 52.4829722], [-1.8849851, 52.4830797]]]}, "properties": {"category": "destination", "name": "BCU - Parkside", "heightM": 19.2, "baseM": 0.0}}, {"type": "Feature", "geometry": {"type": "Polygon", "coordinates": [[[-1.8839756, 52.4840866], [-1.8833864, 52.4841933], [-1.8832071, 52.4838263], [-1.8833114, 52.4838074], [-1.8832977, 52.4837766], [-1.883261, 52.4837044], [-1.8836983, 52.483627], [-1.8837459, 52.4836165], [-1.8839756, 52.4840866]]]}, "properties": {"category": "destination", "name": "BCU - Joseph Priestley", "heightM": 19.2, "baseM": 0.0}}, {"type": "Feature", "geometry": {"type": "Polygon", "coordinates": [[[-1.8869246, 52.4838369], [-1.8868696, 52.4838827], [-1.8864352, 52.4841384], [-1.8861453, 52.484275], [-1.8860328, 52.4843319], [-1.8859805, 52.4841629], [-1.8859349, 52.4839938], [-1.8860152, 52.4839541], [-1.8862017, 52.4838411], [-1.8866712, 52.4836459], [-1.8869246, 52.4838369]]]}, "properties": {"category": "destination", "name": "Royal Birmingham Conservatoire", "heightM": 19.2, "baseM": 0.0}}, {"type": "Feature", "geometry": {"type": "Polygon", "coordinates": [[[-1.8878413, 52.4888969], [-1.887711, 52.4889583], [-1.8876519, 52.4889257], [-1.8876102, 52.4889476], [-1.8875844, 52.4889309], [-1.8875267, 52.4889645], [-1.8875084, 52.4889752], [-1.8875183, 52.4889898], [-1.8873951, 52.4890496], [-1.8865594, 52.4884708], [-1.886935, 52.4882617], [-1.887407, 52.4885834], [-1.8874991, 52.4886476], [-1.8878395, 52.4888959], [-1.8878413, 52.4888969]]]}, "properties": {"category": "destination", "name": "Innovation Birmingham - Faraday Wharf", "heightM": 22.0, "baseM": 0.0}}, {"type": "Feature", "geometry": {"type": "Polygon", "coordinates": [[[-1.8882612, 52.489542], [-1.8878621, 52.489272], [-1.8882869, 52.4890475], [-1.8884733, 52.4891703], [-1.8886362, 52.4892766], [-1.8886905, 52.4893078], [-1.8882612, 52.489542]]]}, "properties": {"category": "destination", "name": "iCentrum", "heightM": 22.0, "baseM": 0.0}}, {"type": "Feature", "geometry": {"type": "Polygon", "coordinates": [[[-1.8810454, 52.4833912], [-1.8812332, 52.4833868], [-1.8812364, 52.4835018], [-1.8812253, 52.4835119], [-1.8810437, 52.4835078], [-1.8810562, 52.4836353], [-1.8810824, 52.4837472], [-1.8813197, 52.4837173], [-1.881347, 52.4838048], [-1.8813596, 52.4838331], [-1.8811263, 52.4838662], [-1.8811816, 52.4839748], [-1.881164, 52.4839792], [-1.8811702, 52.4839916], [-1.8811885, 52.4839885], [-1.8812564, 52.4840941], [-1.8814168, 52.4840458], [-1.8815005, 52.4841572], [-1.8814322, 52.4841794], [-1.8813413, 52.4842034], [-1.8814096, 52.4842827], [-1.8813232, 52.4843121], [-1.8813379, 52.4843324], [-1.8812565, 52.48436], [-1.8811208, 52.4842124], [-1.8811042, 52.4841881], [-1.8809838, 52.4840119], [-1.8809121, 52.4838503], [-1.8808664, 52.4837276], [-1.8808481, 52.4836353], [-1.8808453, 52.4835268], [-1.8808453, 52.4834341], [-1.8808536, 52.4832639], [-1.881053, 52.4832729], [-1.8810454, 52.4833912]]]}, "properties": {"category": "destination", "name": "University Locks", "heightM": 32.0, "baseM": 0.0}}, {"type": "Feature", "geometry": {"type": "Polygon", "coordinates": [[[-1.890075, 52.4823789], [-1.8907221, 52.482727], [-1.8904802, 52.4828789], [-1.8898301, 52.4825309], [-1.8898563, 52.4825159], [-1.890075, 52.4823789]]]}, "properties": {"category": "destination", "name": "One Eastside", "heightM": 155.0, "baseM": 0.0}}, {"type": "Feature", "geometry": {"type": "Polygon", "coordinates": [[[-1.8998285, 52.4785314], [-1.8997695, 52.4785162], [-1.8994185, 52.4784847], [-1.899119, 52.4784583], [-1.8990425, 52.4784509], [-1.8987737, 52.4784268], [-1.898583, 52.4784097], [-1.8982392, 52.4783796], [-1.8980731, 52.4783615], [-1.8975519, 52.4781725], [-1.8974876, 52.4781478], [-1.8975243, 52.4780139], [-1.8975353, 52.4779264], [-1.8975998, 52.4777445], [-1.8976261, 52.4776704], [-1.8976388, 52.4776225], [-1.8976542, 52.4775616], [-1.8976147, 52.477566], [-1.8975677, 52.4775543], [-1.8975249, 52.4775144], [-1.8975132, 52.477461], [-1.8975227, 52.4774232], [-1.8975543, 52.4773537], [-1.8975782, 52.4773109], [-1.8976008, 52.4772848], [-1.8976375, 52.4772606], [-1.8976979, 52.4772293], [-1.8977837, 52.4772062], [-1.8978046, 52.4772015], [-1.8979128, 52.4771792], [-1.8982462, 52.4771436], [-1.8984849, 52.4771028], [-1.8985983, 52.4770917], [-1.8988614, 52.477104], [-1.8988658, 52.4770493], [-1.8987708, 52.4770384], [-1.898753, 52.477025], [-1.8987769, 52.4769585], [-1.8988327, 52.4769035], [-1.8989276, 52.4768659], [-1.8990447, 52.4768398], [-1.8991554, 52.4768144], [-1.8991858, 52.4768207], [-1.8991878, 52.4768415], [-1.8991929, 52.4769638], [-1.8993496, 52.4769784], [-1.8994994, 52.4769938], [-1.8995809, 52.4768703], [-1.8996171, 52.4768616], [-1.8996454, 52.4768572], [-1.8996925, 52.4768698], [-1.8997358, 52.4768885], [-1.899825, 52.4769405], [-1.8999635, 52.4770148], [-1.9000141, 52.477064], [-1.9000244, 52.4771225], [-1.9000191, 52.4771513], [-1.9, 52.4771686], [-1.8999677, 52.4771714], [-1.8998826, 52.4771625], [-1.8998697, 52.4771949], [-1.8998562, 52.477234], [-1.8999918, 52.4772505], [-1.9002546, 52.477299], [-1.9002499, 52.477317], [-1.9002306, 52.4773902], [-1.900222, 52.477423], [-1.9001906, 52.4775423], [-1.900179, 52.4775867], [-1.9001736, 52.4776072], [-1.9001382, 52.4777417], [-1.900129, 52.4777769], [-1.9001201, 52.4778109], [-1.9000862, 52.4779398], [-1.9000787, 52.4779683], [-1.9000701, 52.4780034], [-1.9000427, 52.4781151], [-1.9000208, 52.478229], [-1.8999663, 52.4783934], [-1.8999675, 52.478405], [-1.8999743, 52.4784233], [-1.8999872, 52.4784335], [-1.8999953, 52.4784883], [-1.8999921, 52.4785087], [-1.8999391, 52.4785332], [-1.8998285, 52.4785314]]]}, "properties": {"category": "start", "name": "New Street Station", "heightM": 10.0, "baseM": 0.0}}, {"type": "Feature", "geometry": {"type": "Polygon", "coordinates": [[[-1.8912433, 52.4786419], [-1.8912695, 52.4786105], [-1.8913613, 52.4785001], [-1.8921537, 52.4787118], [-1.8923116, 52.4787549], [-1.8923233, 52.4787408], [-1.8923372, 52.4787208], [-1.8923726, 52.4786736], [-1.8923795, 52.4786631], [-1.8923867, 52.4786548], [-1.8908136, 52.4782511], [-1.8908297, 52.4782266], [-1.8908548, 52.4781887], [-1.8924222, 52.4786032], [-1.8924765, 52.4785256], [-1.8929311, 52.4786202], [-1.8929011, 52.478663], [-1.8928571, 52.4787349], [-1.8927834, 52.4787182], [-1.8927067, 52.4788436], [-1.8925957, 52.479015], [-1.8923673, 52.4789605], [-1.89237, 52.4789468], [-1.8922807, 52.4789266], [-1.8922347, 52.4789645], [-1.8924055, 52.4790183], [-1.8923795, 52.4790545], [-1.8917342, 52.47882], [-1.8916312, 52.4788535], [-1.8923274, 52.4791047], [-1.8923079, 52.4791245], [-1.8923585, 52.4791412], [-1.8924024, 52.4791557], [-1.8924772, 52.4791804], [-1.8924469, 52.4792065], [-1.8924389, 52.4792145], [-1.8922781, 52.4791567], [-1.8920409, 52.4790734], [-1.8920705, 52.479042], [-1.8920196, 52.4790241], [-1.8920174, 52.4790233], [-1.8919607, 52.4790032], [-1.8919212, 52.4789893], [-1.8919126, 52.4789862], [-1.8918799, 52.4789747], [-1.8918054, 52.4789483], [-1.8917497, 52.4789286], [-1.89169, 52.4789074], [-1.8916345, 52.4789239], [-1.8913374, 52.4788076], [-1.8912071, 52.4787512], [-1.8912404, 52.4787098], [-1.8915747, 52.4788314], [-1.8916688, 52.4787962], [-1.8912433, 52.4786419]]]}, "properties": {"category": "start", "name": "Moor Street Station", "heightM": 10.0, "baseM": 0.0}}, {"type": "Feature", "geometry": {"type": "Polygon", "coordinates": [[[-1.8945776, 52.4793688], [-1.8944329, 52.4796876], [-1.8938847, 52.4795567], [-1.8933521, 52.4794152], [-1.8933395, 52.4793673], [-1.893496, 52.4792353], [-1.8942632, 52.4793227], [-1.8945776, 52.4793688]]]}, "properties": {"category": "start", "name": "", "heightM": 13.0, "baseM": 0.0}}, {"type": "Feature", "geometry": {"type": "Polygon", "coordinates": [[[-1.893102, 52.4797528], [-1.8929009, 52.4797142], [-1.8928593, 52.4796643], [-1.8928882, 52.4795846], [-1.8929178, 52.4795412], [-1.8929946, 52.4795156], [-1.8931437, 52.4795393], [-1.8932893, 52.4795703], [-1.893259, 52.479626], [-1.8931884, 52.4797308], [-1.893102, 52.4797528]]]}, "properties": {"category": "start", "name": "", "heightM": 13.0, "baseM": 0.0}}, {"type": "Feature", "geometry": {"type": "Polygon", "coordinates": [[[-1.8924576, 52.4792104], [-1.8924997, 52.4792253], [-1.8924734, 52.479257], [-1.8924688, 52.4792656], [-1.8924382, 52.4792566], [-1.8924084, 52.4792467], [-1.8924389, 52.4792145], [-1.8924469, 52.4792065], [-1.8924576, 52.4792104]]]}, "properties": {"category": "start", "name": "", "heightM": 16.0, "baseM": 0.0}}, {"type": "Feature", "geometry": {"type": "Polygon", "coordinates": [[[-1.8926201, 52.4790692], [-1.8925996, 52.4790959], [-1.8925764, 52.4790893], [-1.8925968, 52.4790626], [-1.8926201, 52.4790692]]]}, "properties": {"category": "start", "name": "", "heightM": 16.0, "baseM": 0.0}}, {"type": "Feature", "geometry": {"type": "Polygon", "coordinates": [[[-1.9006091, 52.4841364], [-1.9004767, 52.4841989], [-1.9001965, 52.4843287], [-1.9001295, 52.4843599], [-1.8999555, 52.4844437], [-1.8985821, 52.483345], [-1.8988599, 52.4832074], [-1.8989032, 52.4831876], [-1.8991143, 52.4830882], [-1.8992123, 52.4830425], [-1.8996073, 52.483357], [-1.8996484, 52.4833378], [-1.8996846, 52.4833662], [-1.8997228, 52.483397], [-1.8996761, 52.4834187], [-1.900141, 52.4837888], [-1.900234, 52.4837454], [-1.9002613, 52.4837676], [-1.9002897, 52.4837897], [-1.9002165, 52.4838238], [-1.9006091, 52.4841364]]]}, "properties": {"category": "start", "name": "Snow Hill Station", "heightM": 16.0, "baseM": 0.0}}, {"type": "Feature", "geometry": {"type": "Polygon", "coordinates": [[[-1.8984749, 52.4828453], [-1.8989032, 52.4831876], [-1.8988599, 52.4832074], [-1.8987859, 52.4832413], [-1.898364, 52.4829], [-1.8984749, 52.4828453]]]}, "properties": {"category": "start", "name": "", "heightM": 16.0, "baseM": 0.0}}, {"type": "Feature", "geometry": {"type": "Polygon", "coordinates": [[[-1.8983784, 52.4840223], [-1.8985227, 52.4841424], [-1.8988647, 52.4844219], [-1.8993602, 52.4842094], [-1.8990944, 52.4839832], [-1.8990133, 52.4839129], [-1.8988925, 52.4838133], [-1.8988088, 52.4838464], [-1.8986293, 52.4839188], [-1.8983784, 52.4840223]]]}, "properties": {"category": "start", "name": "", "heightM": 75.0, "baseM": 0.0}}, {"type": "Feature", "geometry": {"type": "Polygon", "coordinates": [[[-1.8986293, 52.4839188], [-1.8985588, 52.4838608], [-1.898478, 52.4837955], [-1.8986623, 52.4837202], [-1.8987331, 52.4837836], [-1.8988088, 52.4838464], [-1.8986293, 52.4839188]]]}, "properties": {"category": "start", "name": "", "heightM": 16.0, "baseM": 0.0}}, {"type": "Feature", "geometry": {"type": "Polygon", "coordinates": [[[-1.9001896, 52.4811223], [-1.9000224, 52.4809787], [-1.9004285, 52.4808194], [-1.9005221, 52.480923], [-1.9005595, 52.4809164], [-1.9005839, 52.4809433], [-1.9005731, 52.480972], [-1.9001896, 52.4811223]]]}, "properties": {"category": "start", "name": "Colmore Row", "heightM": 29.0, "baseM": 0.0}}, {"type": "Feature", "geometry": {"type": "Polygon", "coordinates": [[[-1.8868238, 52.4874403], [-1.8873079, 52.4871173], [-1.8874922, 52.4869874], [-1.8864644, 52.4864249], [-1.8858691, 52.4868283], [-1.8861024, 52.486956], [-1.8861671, 52.4869122], [-1.8863408, 52.4870072], [-1.886276, 52.4870512], [-1.8865028, 52.4871753], [-1.8865824, 52.4871213], [-1.8867556, 52.4872161], [-1.886603, 52.4873195], [-1.8867695, 52.4874106], [-1.8868238, 52.4874403]]]}, "properties": {"category": "context", "name": "", "heightM": 15.0, "baseM": 0.0}}, {"type": "Feature", "geometry": {"type": "Polygon", "coordinates": [[[-1.8870385, 52.4857491], [-1.887136, 52.4857896], [-1.8871797, 52.4858198], [-1.8870964, 52.4858912], [-1.887287, 52.4859823], [-1.887341, 52.4860605], [-1.887196, 52.4861034], [-1.8871622, 52.4860858], [-1.8869415, 52.4862428], [-1.8868268, 52.486191], [-1.8867314, 52.4862594], [-1.8866236, 52.4862002], [-1.8859857, 52.4858509], [-1.8865981, 52.485414], [-1.8867067, 52.4854749], [-1.8866517, 52.4855157], [-1.886706, 52.4855406], [-1.8867516, 52.4855353], [-1.8868053, 52.4855496], [-1.8868348, 52.4855676], [-1.886873, 52.4856141], [-1.8868697, 52.4856272], [-1.8868992, 52.4856451], [-1.8869179, 52.4856688], [-1.8869038, 52.4856825], [-1.8870385, 52.4857491]]]}, "properties": {"category": "context", "name": "", "heightM": 11.0, "baseM": 0.0}}, {"type": "Feature", "geometry": {"type": "Polygon", "coordinates": [[[-1.8847502, 52.4842153], [-1.884577, 52.4838876], [-1.8845498, 52.4838329], [-1.8845257, 52.4837804], [-1.8845795, 52.4837709], [-1.8846452, 52.4837592], [-1.8855804, 52.4835932], [-1.8856076, 52.48365], [-1.8857857, 52.4840218], [-1.8853382, 52.4841052], [-1.8851946, 52.484132], [-1.884916, 52.4841842], [-1.8847502, 52.4842153]]]}, "properties": {"category": "context", "name": "", "heightM": 9.6, "baseM": 0.0}}, {"type": "Feature", "geometry": {"type": "Polygon", "coordinates": [[[-1.8832272, 52.4871397], [-1.8822521, 52.4873408], [-1.8820491, 52.4869758], [-1.8823645, 52.4869108], [-1.8823323, 52.4868531], [-1.8826586, 52.4867858], [-1.8826295, 52.4867334], [-1.882955, 52.4866688], [-1.8832272, 52.4871397]]]}, "properties": {"category": "context", "name": "", "heightM": 11.0, "baseM": 0.0}}, {"type": "Feature", "geometry": {"type": "Polygon", "coordinates": [[[-1.8898276, 52.4856591], [-1.8900126, 52.4855521], [-1.8898829, 52.4854462], [-1.8900415, 52.4853651], [-1.8902096, 52.4854804], [-1.8904307, 52.48537], [-1.8901562, 52.4851559], [-1.8901253, 52.4851318], [-1.890293, 52.485057], [-1.8903195, 52.4850782], [-1.8906874, 52.4853718], [-1.8897848, 52.4858522], [-1.8896624, 52.485795], [-1.8895853, 52.48575], [-1.8895181, 52.4856615], [-1.8894618, 52.4855109], [-1.8894616, 52.4854176], [-1.8894778, 52.4853463], [-1.8895034, 52.4852854], [-1.8895313, 52.4852287], [-1.8895912, 52.4851687], [-1.8896337, 52.4851315], [-1.8896642, 52.4851101], [-1.8897596, 52.4850604], [-1.8899222, 52.484979], [-1.8900508, 52.4849421], [-1.8901652, 52.4849119], [-1.8902432, 52.4850119], [-1.8899933, 52.485104], [-1.8898789, 52.485184], [-1.8897614, 52.4852716], [-1.8897202, 52.4853406], [-1.8896638, 52.485338], [-1.8896551, 52.4854033], [-1.8896586, 52.4854529], [-1.8896865, 52.485517], [-1.8897625, 52.4855988], [-1.8898276, 52.4856591]]]}, "properties": {"category": "context", "name": "", "heightM": 15.0, "baseM": 0.0}}, {"type": "Feature", "geometry": {"type": "Polygon", "coordinates": [[[-1.8814856, 52.4856259], [-1.8817866, 52.4855796], [-1.8819554, 52.4859804], [-1.881131, 52.4861123], [-1.8811031, 52.4860421], [-1.8812071, 52.4860284], [-1.8811256, 52.4858246], [-1.8809146, 52.4858605], [-1.8810243, 52.4861277], [-1.8807993, 52.4861586], [-1.8806811, 52.4861055], [-1.8805911, 52.4858537], [-1.8806839, 52.4858451], [-1.8806671, 52.4857971], [-1.8807824, 52.4857869], [-1.8808274, 52.4858879], [-1.8809174, 52.4858777], [-1.8808555, 52.4857201], [-1.8814856, 52.4856259]]]}, "properties": {"category": "context", "name": "", "heightM": 11.0, "baseM": 0.0}}, {"type": "Feature", "geometry": {"type": "Polygon", "coordinates": [[[-1.8899194, 52.4830736], [-1.8898065, 52.4829287], [-1.8896447, 52.48298], [-1.8896271, 52.4829849], [-1.8896436, 52.4829976], [-1.8894824, 52.4830476], [-1.8894712, 52.483035], [-1.8894491, 52.4830021], [-1.8894022, 52.4830135], [-1.8893594, 52.4830152], [-1.8893194, 52.4830123], [-1.889293, 52.4830076], [-1.8892738, 52.4830353], [-1.8892424, 52.4830301], [-1.8892184, 52.4830174], [-1.8891772, 52.4830029], [-1.8891225, 52.4829674], [-1.8889361, 52.4830742], [-1.8889738, 52.4830972], [-1.8885573, 52.4833472], [-1.8885801, 52.4833611], [-1.8885226, 52.4833964], [-1.8886592, 52.4834838], [-1.8888973, 52.4833497], [-1.8890054, 52.4833785], [-1.8891059, 52.4833947], [-1.8892045, 52.4834051], [-1.889288, 52.4834063], [-1.8894027, 52.4833976], [-1.8895169, 52.483376], [-1.889556, 52.4834339], [-1.8896525, 52.4834136], [-1.8896807, 52.4834517], [-1.8898938, 52.4833945], [-1.8898669, 52.4833636], [-1.8898949, 52.4833538], [-1.8897147, 52.4831349], [-1.8899194, 52.4830736]]]}, "properties": {"category": "context", "name": "", "heightM": 15.0, "baseM": 0.0}}, {"type": "Feature", "geometry": {"type": "Polygon", "coordinates": [[[-1.8808555, 52.4857201], [-1.8805377, 52.4857663], [-1.8804167, 52.4854135], [-1.880487, 52.4853227], [-1.880774, 52.485285], [-1.8807852, 52.4853055], [-1.8813168, 52.4852182], [-1.8814856, 52.4856259], [-1.8808555, 52.4857201]]]}, "properties": {"category": "context", "name": "", "heightM": 11.0, "baseM": 0.0}}, {"type": "Feature", "geometry": {"type": "Polygon", "coordinates": [[[-1.8920231, 52.4832297], [-1.8925319, 52.4832325], [-1.8925339, 52.4831722], [-1.8925322, 52.4831013], [-1.8926018, 52.4831001], [-1.8925999, 52.4828877], [-1.8925979, 52.4828385], [-1.8926005, 52.4827511], [-1.8925226, 52.4827474], [-1.8925288, 52.4825653], [-1.8924316, 52.4825212], [-1.8921499, 52.4825236], [-1.8920353, 52.4825861], [-1.8920199, 52.4826984], [-1.8918587, 52.4827002], [-1.8918532, 52.4828606], [-1.8919641, 52.4828601], [-1.8919641, 52.4827815], [-1.8920428, 52.4827754], [-1.8920231, 52.4832297]]]}, "properties": {"category": "context", "name": "", "heightM": 11.0, "baseM": 0.0}}, {"type": "Feature", "geometry": {"type": "Polygon", "coordinates": [[[-1.8915322, 52.4846568], [-1.8915535, 52.484802], [-1.8915106, 52.4849456], [-1.8914156, 52.4850407], [-1.890993, 52.4852906], [-1.8905355, 52.484958], [-1.8903699, 52.4848377], [-1.8904733, 52.4847886], [-1.8905911, 52.4847062], [-1.8906662, 52.4846401], [-1.8906967, 52.4845713], [-1.8906993, 52.4844788], [-1.8908785, 52.484475], [-1.8908667, 52.4845736], [-1.8908344, 52.48467], [-1.890775, 52.4847526], [-1.8907128, 52.4848055], [-1.8906639, 52.4848333], [-1.8910236, 52.485078], [-1.8912778, 52.4849325], [-1.8913421, 52.4848467], [-1.8913331, 52.4846728], [-1.8915322, 52.4846568]]]}, "properties": {"category": "context", "name": "", "heightM": 15.0, "baseM": 0.0}}, {"type": "Feature", "geometry": {"type": "Polygon", "coordinates": [[[-1.8877679, 52.4847722], [-1.8879785, 52.484633], [-1.8878246, 52.4845467], [-1.887607, 52.4846906], [-1.8872274, 52.4844777], [-1.8871754, 52.4844485], [-1.8875147, 52.4842241], [-1.8877162, 52.484337], [-1.8878679, 52.4842367], [-1.8876774, 52.4841299], [-1.8878629, 52.4840072], [-1.8877064, 52.4839194], [-1.8873189, 52.4841757], [-1.8868975, 52.4844544], [-1.8876215, 52.4848603], [-1.8877679, 52.4847722]]]}, "properties": {"category": "context", "name": "", "heightM": 15.0, "baseM": 0.0}}, {"type": "Feature", "geometry": {"type": "Polygon", "coordinates": [[[-1.8894118, 52.4843825], [-1.8887461, 52.4839916], [-1.8884992, 52.4841431], [-1.8883954, 52.4842076], [-1.8890636, 52.48459], [-1.8894118, 52.4843825]]]}, "properties": {"category": "context", "name": "", "heightM": 6.4, "baseM": 0.0}}, {"type": "Feature", "geometry": {"type": "Polygon", "coordinates": [[[-1.8882754, 52.4854095], [-1.8886857, 52.48565], [-1.8887487, 52.4856869], [-1.8888475, 52.4857448], [-1.8888165, 52.4857644], [-1.8886399, 52.4858762], [-1.8885691, 52.4858347], [-1.8884207, 52.4859286], [-1.8879193, 52.4856348], [-1.8882754, 52.4854095]]]}, "properties": {"category": "context", "name": "", "heightM": 12.8, "baseM": 0.0}}, {"type": "Feature", "geometry": {"type": "Polygon", "coordinates": [[[-1.8814318, 52.4862001], [-1.8807636, 52.4863068], [-1.8808856, 52.4865899], [-1.8815531, 52.4864715], [-1.8814318, 52.4862001]]]}, "properties": {"category": "context", "name": "", "heightM": 11.0, "baseM": 0.0}}, {"type": "Feature", "geometry": {"type": "Polygon", "coordinates": [[[-1.8874056, 52.4855748], [-1.88714, 52.4852249], [-1.8866826, 52.4853797], [-1.8869615, 52.4857035], [-1.8871022, 52.4856629], [-1.8874056, 52.4855748]]]}, "properties": {"category": "context", "name": "", "heightM": 9.6, "baseM": 0.0}}, {"type": "Feature", "geometry": {"type": "Polygon", "coordinates": [[[-1.8930859, 52.4833431], [-1.8928611, 52.4836275], [-1.8928316, 52.4836648], [-1.8927015, 52.4836266], [-1.8926469, 52.4836956], [-1.8924606, 52.483641], [-1.8925225, 52.4835626], [-1.8924375, 52.4835377], [-1.8926843, 52.4832254], [-1.8930859, 52.4833431]]]}, "properties": {"category": "context", "name": "", "heightM": 14.0, "baseM": 0.0}}, {"type": "Feature", "geometry": {"type": "Polygon", "coordinates": [[[-1.8815531, 52.4864715], [-1.8808856, 52.4865899], [-1.8808277, 52.4866002], [-1.8809057, 52.4867634], [-1.8812757, 52.4866978], [-1.8813003, 52.4867491], [-1.8814571, 52.4867213], [-1.8814104, 52.4866236], [-1.8818263, 52.4865499], [-1.8818034, 52.486502], [-1.8818748, 52.4864894], [-1.8818417, 52.4864203], [-1.8815531, 52.4864715]]]}, "properties": {"category": "context", "name": "", "heightM": 11.0, "baseM": 0.0}}, {"type": "Feature", "geometry": {"type": "Polygon", "coordinates": [[[-1.8876166, 52.485017], [-1.8881027, 52.4852903], [-1.887837, 52.4854656], [-1.8877068, 52.4853924], [-1.8877369, 52.4853726], [-1.8876702, 52.4853351], [-1.8876336, 52.4853592], [-1.8874051, 52.4852308], [-1.8874413, 52.4852069], [-1.8873734, 52.4851687], [-1.8876166, 52.485017]]]}, "properties": {"category": "context", "name": "", "heightM": 6.4, "baseM": 0.0}}, {"type": "Feature", "geometry": {"type": "Polygon", "coordinates": [[[-1.8909153, 52.4832533], [-1.8910843, 52.4832562], [-1.8910859, 52.483315], [-1.8911192, 52.4834092], [-1.8911638, 52.4834978], [-1.8912187, 52.4835564], [-1.8912699, 52.4836072], [-1.8912996, 52.483669], [-1.8913394, 52.4837438], [-1.8913666, 52.4838141], [-1.8913955, 52.4839629], [-1.8914231, 52.4841263], [-1.8913431, 52.4841303], [-1.8913285, 52.4840977], [-1.8912699, 52.4840994], [-1.8912409, 52.4840987], [-1.8912052, 52.4839129], [-1.8911732, 52.4837707], [-1.8911523, 52.4837204], [-1.8911011, 52.4836384], [-1.8910328, 52.4835622], [-1.8909835, 52.4834906], [-1.890938, 52.4833936], [-1.8909152, 52.4832942], [-1.8909153, 52.4832533]]]}, "properties": {"category": "context", "name": "", "heightM": 15.0, "baseM": 0.0}}, {"type": "Feature", "geometry": {"type": "Polygon", "coordinates": [[[-1.8884604, 52.4851658], [-1.8883644, 52.4851119], [-1.8885472, 52.484991], [-1.8884755, 52.4849508], [-1.888403, 52.4849101], [-1.8882544, 52.4850084], [-1.8882244, 52.4850282], [-1.8879664, 52.4848835], [-1.8877679, 52.4847722], [-1.8876215, 52.4848603], [-1.8883247, 52.4852547], [-1.8883297, 52.4852565], [-1.8884604, 52.4851658]]]}, "properties": {"category": "context", "name": "", "heightM": 15.0, "baseM": 0.0}}, {"type": "Feature", "geometry": {"type": "Polygon", "coordinates": [[[-1.8909039, 52.4840427], [-1.8909096, 52.483963], [-1.890902, 52.4838844], [-1.8908451, 52.4837689], [-1.8907616, 52.4836684], [-1.8906391, 52.4835816], [-1.8905855, 52.4835443], [-1.8904344, 52.4834394], [-1.8904163, 52.4834478], [-1.8903722, 52.483417], [-1.8903231, 52.4834395], [-1.8902861, 52.4834275], [-1.8902212, 52.4834699], [-1.8903997, 52.4835866], [-1.8904676, 52.4836363], [-1.8905854, 52.4837135], [-1.8906567, 52.4837762], [-1.8907104, 52.4838683], [-1.8907256, 52.4839179], [-1.8907275, 52.4839699], [-1.8907294, 52.484038], [-1.8907275, 52.4840796], [-1.8907678, 52.4841218], [-1.8907831, 52.4841093], [-1.8908359, 52.4841189], [-1.8908629, 52.4841222], [-1.8909001, 52.4841233], [-1.8909418, 52.4841205], [-1.8909787, 52.4841115], [-1.891012, 52.4840953], [-1.8909785, 52.4840948], [-1.8909721, 52.4840461], [-1.8909039, 52.4840427]]]}, "properties": {"category": "context", "name": "", "heightM": 11.0, "baseM": 0.0}}, {"type": "Feature", "geometry": {"type": "Polygon", "coordinates": [[[-1.8857271, 52.4830013], [-1.8856759, 52.4830049], [-1.8856178, 52.4830165], [-1.8855778, 52.4830303], [-1.8855436, 52.483047], [-1.8855176, 52.4830642], [-1.8855016, 52.4830777], [-1.8854787, 52.4831041], [-1.8854639, 52.4831324], [-1.8854575, 52.4831635], [-1.8854599, 52.4831918], [-1.8854729, 52.4832244], [-1.8855053, 52.4832634], [-1.8855385, 52.4832877], [-1.8855826, 52.4833093], [-1.8856289, 52.483324], [-1.8856958, 52.4833349], [-1.8857535, 52.4833359], [-1.885786, 52.4833341], [-1.8858749, 52.4833122], [-1.885939, 52.4832795], [-1.885984, 52.4832366], [-1.8860058, 52.4831875], [-1.8860024, 52.4831366], [-1.8859774, 52.4830925], [-1.8859333, 52.4830544], [-1.8858737, 52.4830251], [-1.8858031, 52.4830069], [-1.8857271, 52.4830013]]]}, "properties": {"category": "context", "name": "", "heightM": 15.0, "baseM": 0.0}}, {"type": "Feature", "geometry": {"type": "Polygon", "coordinates": [[[-1.8874033, 52.4860474], [-1.8877067, 52.4859592], [-1.8874056, 52.4855748], [-1.8871022, 52.4856629], [-1.8874033, 52.4860474]]]}, "properties": {"category": "context", "name": "", "heightM": 11.0, "baseM": 0.0}}, {"type": "Feature", "geometry": {"type": "Polygon", "coordinates": [[[-1.884104, 52.4865554], [-1.8839524, 52.4865968], [-1.8838781, 52.4865196], [-1.8836956, 52.486561], [-1.8836151, 52.4864593], [-1.8836213, 52.4863915], [-1.8836461, 52.4863519], [-1.8836801, 52.4863199], [-1.8838317, 52.4862803], [-1.884104, 52.4865554]]]}, "properties": {"category": "context", "name": "", "heightM": 11.0, "baseM": 0.0}}, {"type": "Feature", "geometry": {"type": "Polygon", "coordinates": [[[-1.8846866, 52.487031], [-1.884627, 52.4870514], [-1.8844345, 52.4871174], [-1.8844995, 52.4871878], [-1.8843721, 52.4872314], [-1.8844892, 52.4873581], [-1.884683, 52.4872917], [-1.8846352, 52.48724], [-1.8848209, 52.4871764], [-1.8846866, 52.487031]]]}, "properties": {"category": "context", "name": "", "heightM": 11.0, "baseM": 0.0}}, {"type": "Feature", "geometry": {"type": "Polygon", "coordinates": [[[-1.8853355, 52.4862067], [-1.8855645, 52.4863331], [-1.8857405, 52.4864302], [-1.8858877, 52.4863313], [-1.8854827, 52.4861078], [-1.8853355, 52.4862067]]]}, "properties": {"category": "context", "name": "", "heightM": 11.0, "baseM": 0.0}}, {"type": "Feature", "geometry": {"type": "Polygon", "coordinates": [[[-1.8856955, 52.4853426], [-1.8854494, 52.4855265], [-1.8856653, 52.4856422], [-1.8859201, 52.485459], [-1.8856955, 52.4853426]]]}, "properties": {"category": "context", "name": "", "heightM": 11.0, "baseM": 0.0}}, {"type": "Feature", "geometry": {"type": "Polygon", "coordinates": [[[-1.8853345, 52.4867017], [-1.8851637, 52.4866096], [-1.8849518, 52.4867551], [-1.8848654, 52.4868145], [-1.8850362, 52.4869067], [-1.8853345, 52.4867017]]]}, "properties": {"category": "context", "name": "", "heightM": 11.0, "baseM": 0.0}}, {"type": "Feature", "geometry": {"type": "Polygon", "coordinates": [[[-1.8855645, 52.4863331], [-1.8857405, 52.4864302], [-1.8854582, 52.48662], [-1.8852822, 52.4865229], [-1.8855645, 52.4863331]]]}, "properties": {"category": "context", "name": "", "heightM": 11.0, "baseM": 0.0}}, {"type": "Feature", "geometry": {"type": "Polygon", "coordinates": [[[-1.8908675, 52.4832528], [-1.8908736, 52.483043], [-1.8911445, 52.483046], [-1.8911383, 52.4832568], [-1.8910843, 52.4832562], [-1.8909153, 52.4832533], [-1.8908675, 52.4832528]]]}, "properties": {"category": "context", "name": "", "heightM": 15.0, "baseM": 0.0}}, {"type": "Feature", "geometry": {"type": "Polygon", "coordinates": [[[-1.8874158, 52.485087], [-1.8873166, 52.4850283], [-1.8872653, 52.4850604], [-1.8871291, 52.4849797], [-1.8873382, 52.4848488], [-1.8875736, 52.4849882], [-1.8874158, 52.485087]]]}, "properties": {"category": "context", "name": "", "heightM": 6.4, "baseM": 0.0}}, {"type": "Feature", "geometry": {"type": "Polygon", "coordinates": [[[-1.8913331, 52.4846728], [-1.8913046, 52.4845412], [-1.8912824, 52.4844383], [-1.8914814, 52.4844224], [-1.8915322, 52.4846568], [-1.8913331, 52.4846728]]]}, "properties": {"category": "context", "name": "", "heightM": 15.0, "baseM": 0.0}}, {"type": "Feature", "geometry": {"type": "Polygon", "coordinates": [[[-1.8851637, 52.4866096], [-1.8849857, 52.4865135], [-1.8847738, 52.486659], [-1.8849518, 52.4867551], [-1.8851637, 52.4866096]]]}, "properties": {"category": "context", "name": "", "heightM": 11.0, "baseM": 0.0}}, {"type": "Feature", "geometry": {"type": "Polygon", "coordinates": [[[-1.8883297, 52.4852565], [-1.8884929, 52.485349], [-1.8886421, 52.4852502], [-1.8886415, 52.4852], [-1.8886314, 52.4851306], [-1.8885668, 52.4850954], [-1.8884604, 52.4851658], [-1.8883297, 52.4852565]]]}, "properties": {"category": "context", "name": "", "heightM": 15.0, "baseM": 0.0}}, {"type": "Feature", "geometry": {"type": "Polygon", "coordinates": [[[-1.8881333, 52.4838688], [-1.8879923, 52.4837853], [-1.8882452, 52.4836267], [-1.8883863, 52.4837102], [-1.8881333, 52.4838688]]]}, "properties": {"category": "context", "name": "", "heightM": 11.0, "baseM": 0.0}}, {"type": "Feature", "geometry": {"type": "Polygon", "coordinates": [[[-1.884627, 52.4870514], [-1.8845176, 52.486933], [-1.884325, 52.486999], [-1.8844345, 52.4871174], [-1.884627, 52.4870514]]]}, "properties": {"category": "context", "name": "", "heightM": 11.0, "baseM": 0.0}}, {"type": "Feature", "geometry": {"type": "Polygon", "coordinates": [[[-1.8848504, 52.4854871], [-1.8847276, 52.4855768], [-1.8845879, 52.4855059], [-1.8846877, 52.4854331], [-1.8847466, 52.4854344], [-1.8848504, 52.4854871]]]}, "properties": {"category": "context", "name": "", "heightM": 11.0, "baseM": 0.0}}, {"type": "Feature", "geometry": {"type": "Polygon", "coordinates": [[[-1.8857393, 52.4870937], [-1.8856048, 52.4870051], [-1.8857064, 52.486948], [-1.8858408, 52.4870366], [-1.8857393, 52.4870937]]]}, "properties": {"category": "context", "name": "", "heightM": 11.0, "baseM": 0.0}}, {"type": "Feature", "geometry": {"type": "Polygon", "coordinates": [[[-1.8919558, 52.4836598], [-1.891966, 52.4835368], [-1.8920444, 52.4835391], [-1.8921208, 52.4835647], [-1.8921027, 52.4835864], [-1.8920389, 52.4836733], [-1.8919558, 52.4836598]]]}, "properties": {"category": "context", "name": "", "heightM": 11.0, "baseM": 0.0}}, {"type": "Feature", "geometry": {"type": "Polygon", "coordinates": [[[-1.890293, 52.4847588], [-1.8901122, 52.4848441], [-1.8900626, 52.4848052], [-1.8902435, 52.4847198], [-1.890293, 52.4847588]]]}, "properties": {"category": "context", "name": "", "heightM": 11.0, "baseM": 0.0}}, {"type": "Feature", "geometry": {"type": "Polygon", "coordinates": [[[-1.8909298, 52.4842501], [-1.8906958, 52.4842375], [-1.8907026, 52.4841901], [-1.8909366, 52.4842027], [-1.8909298, 52.4842501]]]}, "properties": {"category": "context", "name": "", "heightM": 11.0, "baseM": 0.0}}, {"type": "Feature", "geometry": {"type": "Polygon", "coordinates": [[[-1.8882655, 52.4839785], [-1.888121, 52.4838971], [-1.8881803, 52.4838581], [-1.8883248, 52.4839395], [-1.8882655, 52.4839785]]]}, "properties": {"category": "context", "name": "", "heightM": 11.0, "baseM": 0.0}}, {"type": "Feature", "geometry": {"type": "Polygon", "coordinates": [[[-1.888567, 52.4838235], [-1.8884117, 52.4839205], [-1.8883758, 52.4838992], [-1.8885311, 52.4838022], [-1.888567, 52.4838235]]]}, "properties": {"category": "context", "name": "", "heightM": 11.0, "baseM": 0.0}}, {"type": "Feature", "geometry": {"type": "Polygon", "coordinates": [[[-1.8853804, 52.484189], [-1.8853503, 52.484128], [-1.8852843, 52.48414], [-1.8853143, 52.484201], [-1.8853804, 52.484189]]]}, "properties": {"category": "context", "name": "", "heightM": 11.0, "baseM": 0.0}}, {"type": "Feature", "geometry": {"type": "Polygon", "coordinates": [[[-1.892103927461648, 52.48427839022637], [-1.8921252000752533, 52.48429136738401], [-1.8921582035176034, 52.48429856278062], [-1.8922002640460778, 52.48429939348799], [-1.8922479741668035, 52.484293792207126], [-1.8922974686895417, 52.4842822127205], [-1.892344737862416, 52.48426559312925], [-1.8923859522181607, 52.48424527985383], [-1.8924177728147844, 52.48422291855499], [-1.8924376217367929, 52.484200320812185], [-1.8924438909425711, 52.48417931736014], [-1.8924360725383518, 52.48416160977363], [-1.8924147999247465, 52.48414863261599], [-1.8923817964823964, 52.48414143721938], [-1.892339735953922, 52.484140606512014], [-1.8922920258331963, 52.484146207792875], [-1.892242531310458, 52.4841577872795], [-1.8921952621375837, 52.48417440687075], [-1.892154047781839, 52.48419472014617], [-1.8921222271852154, 52.48421708144501], [-1.892102378263207, 52.484239679187816], [-1.8920961090574286, 52.484260682639864], [-1.892103927461648, 52.48427839022637]]]}, "properties": {"category": "pavilion", "name": "Gateway pavilion (concept)", "heightM": 1.0, "baseM": 0.0}}, {"type": "Feature", "geometry": {"type": "Polygon", "coordinates": [[[-1.892071990435042, 52.48428961911606], [-1.8920987125823159, 52.48430652495964], [-1.8921393114174851, 52.48431642106557], [-1.8921904978643749, 52.48431850571021], [-1.8922481251014756, 52.48431261000805], [-1.8923075245127594, 52.4842992115938], [-1.8923638839111867, 52.48427939592731], [-1.8924126373934784, 52.48425476835604], [-1.892449835242448, 52.48422732405933], [-1.8924724639095956, 52.48419928641089], [-1.8924786901548871, 52.48417292685426], [-1.8924680095649578, 52.48415038088394], [-1.892441287417684, 52.48413347504036], [-1.8924006885825146, 52.48412357893443], [-1.892349502135625, 52.48412149428979], [-1.8922918748985242, 52.484127389991954], [-1.8922324754872404, 52.4841407884062], [-1.892176116088813, 52.48416060407269], [-1.8921273626065214, 52.48418523164396], [-1.8920901647575519, 52.48421267594067], [-1.8920675360904042, 52.48424071358911], [-1.8920613098451127, 52.484267073145745], [-1.892071990435042, 52.48428961911606]]]}, "properties": {"category": "pavilion", "name": "", "heightM": 5.4, "baseM": 4.6}}]}