{"type": "FeatureCollection", "attribution": "Road geometry (c) OpenStreetMap contributors, ODbL", "features": [{"type": "Feature", "geometry": {"type": "Polygon", "coordinates": [[[-1.8831645983919836, 52.48608937117874], [-1.8832330197983231, 52.486136467997326], [-1.8830893872083296, 52.48621384665662], [-1.88302096580199, 52.486166749838034], [-1.8831645983919836, 52.48608937117874]]]}, "properties": {"kind": "band", "name": "Safer crossing (concept)"}}, {"type": "Feature", "geometry": {"type": "Polygon", "coordinates": [[[-1.8829104789158924, 52.486226271883645], [-1.8829789005351825, 52.48627336870223], [-1.8828352674981554, 52.48635074736152], [-1.8827668458788653, 52.486303650542936], [-1.8829104789158924, 52.486226271883645]]]}, "properties": {"kind": "band", "name": "Safer crossing (concept)"}}, {"type": "Feature", "geometry": {"type": "Polygon", "coordinates": [[[-1.8830154412980131, 52.486169725940314], [-1.883083862810828, 52.4862168227589], [-1.8829844247091674, 52.48627039259995], [-1.8829160031963526, 52.486223295781365], [-1.8830154412980131, 52.486169725940314]]]}, "properties": {"kind": "refuge"}}, {"type": "Feature", "geometry": {"type": "Point", "coordinates": [-1.8831988092069116, 52.48611291958803]}, "properties": {"kind": "signal"}}, {"type": "Feature", "geometry": {"type": "Point", "coordinates": [-1.8830496520544207, 52.48619327434961]}, "properties": {"kind": "signal"}}, {"type": "Feature", "geometry": {"type": "Point", "coordinates": [-1.8829502139527599, 52.48624684419065]}, "properties": {"kind": "signal"}}, {"type": "Feature", "geometry": {"type": "Point", "coordinates": [-1.8828010568002689, 52.48632719895223]}, "properties": {"kind": "signal"}}]}