{
  "type": "FeatureCollection",
  "features": [
    {
      "type": "Feature",
      "geometry": {
        "type": "LineString",
        "coordinates": [
          [
            -1.8998953,
            52.4809751
          ],
          [
            -1.9000815,
            52.4811692
          ],
          [
            -1.9000121,
            52.4811963
          ],
          [
            -1.899936,
            52.4811338
          ],
          [
            -1.8998562,
            52.4811252
          ],
          [
            -1.8995352,
            52.4810845
          ],
          [
            -1.8993231,
            52.4810576
          ],
          [
            -1.8992447,
            52.4810112
          ],
          [
            -1.8986667,
            52.4810752
          ],
          [
            -1.8984645,
            52.481094
          ],
          [
            -1.8982581,
            52.4811111
          ],
          [
            -1.8973129,
            52.4812349
          ],
          [
            -1.8972648,
            52.4812055
          ],
          [
            -1.8966766,
            52.4814517
          ],
          [
            -1.8960766,
            52.4816806
          ],
          [
            -1.8950614,
            52.4820734
          ],
          [
            -1.8949874,
            52.4820978
          ],
          [
            -1.8944999,
            52.4823494
          ],
          [
            -1.8941896,
            52.4823917
          ],
          [
            -1.89354,
            52.4829127
          ],
          [
            -1.8934364,
            52.4831592
          ],
          [
            -1.8929842,
            52.483666
          ],
          [
            -1.8926928,
            52.4840347
          ]
        ]
      },
      "properties": {
        "name": "Colmore Row",
        "priority": "Priority 1",
        "legibilityScore": 68
      }
    },
    {
      "type": "Feature",
      "geometry": {
        "type": "LineString",
        "coordinates": [
          [
            -1.8926743,
            52.4791186
          ],
          [
            -1.892729,
            52.4791294
          ],
          [
            -1.8929742,
            52.4792606
          ],
          [
            -1.8930964,
            52.4792861
          ],
          [
            -1.8930093,
            52.4793993
          ],
          [
            -1.8930894,
            52.4794255
          ],
          [
            -1.8933984,
            52.4795133
          ],
          [
            -1.8933512,
            52.4795642
          ],
          [
            -1.8932118,
            52.4797473
          ],
          [
            -1.8933254,
            52.4797238
          ],
          [
            -1.893465,
            52.4797618
          ],
          [
            -1.8934625,
            52.4800912
          ],
          [
            -1.8935075,
            52.4800982
          ],
          [
            -1.8935474,
            52.4803294
          ],
          [
            -1.8937591,
            52.4803151
          ],
          [
            -1.8939978,
            52.4804793
          ],
          [
            -1.894042,
            52.4805967
          ],
          [
            -1.8936449,
            52.4809809
          ],
          [
            -1.8927853,
            52.4818799
          ],
          [
            -1.8922315,
            52.482362
          ],
          [
            -1.8929735,
            52.4827076
          ],
          [
            -1.8932883,
            52.4828558
          ],
          [
            -1.89354,
            52.4829127
          ],
          [
            -1.8934364,
            52.4831592
          ],
          [
            -1.8929842,
            52.483666
          ],
          [
            -1.8926928,
            52.4840347
          ]
        ]
      },
      "properties": {
        "name": "Moor Street",
        "priority": "Priority 1",
        "legibilityScore": 49
      }
    },
    {
      "type": "Feature",
      "geometry": {
        "type": "LineString",
        "coordinates": [
          [
            -1.8845343,
            52.4900138
          ],
          [
            -1.8855959,
            52.4896101
          ],
          [
            -1.8852703,
            52.4891872
          ],
          [
            -1.8854457,
            52.4891283
          ],
          [
            -1.8857169,
            52.4889308
          ],
          [
            -1.8860463,
            52.4887072
          ],
          [
            -1.8861001,
            52.4886722
          ],
          [
            -1.8868551,
            52.4881809
          ],
          [
            -1.8872708,
            52.4879104
          ],
          [
            -1.887767,
            52.4875174
          ],
          [
            -1.8882321,
            52.4872855
          ],
          [
            -1.8889353,
            52.4867647
          ],
          [
            -1.8890907,
            52.4866554
          ],
          [
            -1.8898321,
            52.4865379
          ],
          [
            -1.8900147,
            52.4865475
          ],
          [
            -1.8903387,
            52.4864962
          ],
          [
            -1.8905095,
            52.4864685
          ],
          [
            -1.8908576,
            52.4864117
          ],
          [
            -1.8913447,
            52.4866171
          ],
          [
            -1.8914677,
            52.4866003
          ],
          [
            -1.8917492,
            52.4860181
          ],
          [
            -1.8918668,
            52.485693
          ],
          [
            -1.8926694,
            52.4856124
          ],
          [
            -1.8921329,
            52.4849028
          ],
          [
            -1.892194,
            52.4848184
          ],
          [
            -1.8925466,
            52.4846302
          ],
          [
            -1.8926928,
            52.4840347
          ]
        ]
      },
      "properties": {
        "name": "Nechells / Dartmouth",
        "priority": "Priority 1",
        "legibilityScore": 51
      }
    },
    {
      "type": "Feature",
      "geometry": {
        "type": "LineString",
        "coordinates": [
          [
            -1.8987422,
            52.4777322
          ],
          [
            -1.8986435,
            52.477604
          ],
          [
            -1.8986648,
            52.4775274
          ],
          [
            -1.8986997,
            52.4774079
          ],
          [
            -1.8990867,
            52.4774396
          ],
          [
            -1.8990542,
            52.4775406
          ],
          [
            -1.8989816,
            52.4777598
          ],
          [
            -1.8989534,
            52.4778501
          ],
          [
            -1.898916,
            52.4779823
          ],
          [
            -1.8989007,
            52.4780362
          ],
          [
            -1.8987606,
            52.4784734
          ],
          [
            -1.8982278,
            52.4784206
          ],
          [
            -1.8983108,
            52.4786391
          ],
          [
            -1.8981178,
            52.4789924
          ],
          [
            -1.898071,
            52.479072
          ],
          [
            -1.8979309,
            52.4790582
          ],
          [
            -1.897314,
            52.4796609
          ],
          [
            -1.8971207,
            52.4798269
          ],
          [
            -1.896759,
            52.4801446
          ],
          [
            -1.8966929,
            52.4801968
          ],
          [
            -1.8961075,
            52.4806461
          ],
          [
            -1.8955918,
            52.481086
          ],
          [
            -1.8954763,
            52.4811632
          ],
          [
            -1.895379,
            52.4813284
          ],
          [
            -1.8947132,
            52.4818992
          ],
          [
            -1.8946651,
            52.4819582
          ],
          [
            -1.8949874,
            52.4820978
          ],
          [
            -1.8944999,
            52.4823494
          ],
          [
            -1.8941896,
            52.4823917
          ],
          [
            -1.89354,
            52.4829127
          ],
          [
            -1.8934364,
            52.4831592
          ],
          [
            -1.8929842,
            52.483666
          ],
          [
            -1.8926928,
            52.4840347
          ]
        ]
      },
      "properties": {
        "name": "New Street",
        "priority": "Additional tested route",
        "legibilityScore": 65
      }
    },
    {
      "type": "Feature",
      "geometry": {
        "type": "LineString",
        "coordinates": [
          [
            -1.8988334,
            52.4837407
          ],
          [
            -1.8984117,
            52.4839227
          ],
          [
            -1.8983328,
            52.4839563
          ],
          [
            -1.898143,
            52.4840393
          ],
          [
            -1.897702,
            52.4836545
          ],
          [
            -1.8975109,
            52.4834968
          ],
          [
            -1.8968639,
            52.4837763
          ],
          [
            -1.8967292,
            52.4837858
          ],
          [
            -1.8959448,
            52.4832745
          ],
          [
            -1.8957387,
            52.4833267
          ],
          [
            -1.8953166,
            52.483462
          ],
          [
            -1.8951966,
            52.4835039
          ],
          [
            -1.8948447,
            52.4836312
          ],
          [
            -1.8945746,
            52.4837562
          ],
          [
            -1.8941791,
            52.4840164
          ],
          [
            -1.8939473,
            52.4841547
          ],
          [
            -1.8929842,
            52.483666
          ],
          [
            -1.8926928,
            52.4840347
          ]
        ]
      },
      "properties": {
        "name": "Snow Hill",
        "priority": "Additional tested route",
        "legibilityScore": 45
      }
    }
  ]
}
