{
  "type": "FeatureCollection",
  "features": [
    {
      "type": "Feature",
      "geometry": {
        "type": "Polygon",
        "coordinates": [
          [
            [
              -1.896408931429561,
              52.473548742879494
            ],
            [
              -1.897106019959655,
              52.47342564914179
            ],
            [
              -1.897819565871235,
              52.47334506193916
            ],
            [
              -1.898542636814324,
              52.473307764199554
            ],
            [
              -1.899268207984318,
              52.47331411828044
            ],
            [
              -1.899989230308176,
              52.473364062451516
            ],
            [
              -1.900698698865305,
              52.47345711149401
            ],
            [
              -1.901389720881471,
              52.47359236141019
            ],
            [
              -1.902055582638077,
              52.473768498198375
            ],
            [
              -1.902689814649521,
              52.47398381060783
            ],
            [
              -1.903286254477846,
              52.47423620675057
            ],
            [
              -1.903839106576438,
              52.47452323440934
            ],
            [
              -1.904342998582922,
              52.47484210484489
            ],
            [
              -1.9047930335153,
              52.4751897198726
            ],
            [
              -1.905184837364617,
              52.47556270194597
            ],
            [
              -1.905514601621512,
              52.475957426955574
            ],
            [
              -1.90577912032265,
              52.47637005942589
            ],
            [
              -1.905975821255663,
              52.47679658976862
            ],
            [
              -1.907176314747772,
              52.479996517758856
            ],
            [
              -1.907297890614901,
              52.48040739718761
            ],
            [
              -1.907356500993821,
              52.48082339153655
            ],
            [
              -1.907351638409774,
              52.48124091160121
            ],
            [
              -1.907283343021533,
              52.4816563549122
            ],
            [
              -1.907152202336777,
              52.48206613681836
            ],
            [
              -1.906152583458237,
              52.484566196989576
            ],
            [
              -1.905946799760657,
              52.48498941379235
            ],
            [
              -1.905674000354004,
              52.485398265118356
            ],
            [
              -1.905336815142677,
              52.48578880673811
            ],
            [
              -1.904938495415573,
              52.48615727095649
            ],
            [
              -1.904482882530342,
              52.486500102976294
            ],
            [
              -1.903974370891793,
              52.486813995210596
            ],
            [
              -1.903417865580285,
              52.48709591921198
            ],
            [
              -1.889217357158845,
              52.49359644512962
            ],
            [
              -1.888622412573399,
              52.49384199588012
            ],
            [
              -1.887991104209889,
              52.49405100355479
            ],
            [
              -1.887329437450436,
              52.49422147979637
            ],
            [
              -1.886643706726155,
              52.49435180278905
            ],
            [
              -1.885940435596949,
              52.494440732700426
            ],
            [
              -1.885226314642196,
              52.494487423486824
            ],
            [
              -1.884508137755476,
              52.494491430949246
            ],
            [
              -1.883792737452007,
              52.49445271696326
            ],
            [
              -1.883086919806995,
              52.49437164984178
            ],
            [
              -1.882397399646672,
              52.49424900082799
            ],
            [
              -1.881730736611386,
              52.49408593675144
            ],
            [
              -1.881093272701608,
              52.49388400891763
            ],
            [
              -1.880491071903381,
              52.49364513833735
            ],
            [
              -1.879929862469583,
              52.4933715974367
            ],
            [
              -1.879414982407689,
              52.4930659884227
            ],
            [
              -1.878951328693685,
              52.492731218510684
            ],
            [
              -1.878543310695824,
              52.49237047225074
            ],
            [
              -1.878194808251261,
              52.49198718121628
            ],
            [
              -1.877909134793813,
              52.491584991344794
            ],
            [
              -1.877689005882425,
              52.49116772824176
            ],
            [
              -1.8775365134281,
              52.49073936077874
            ],
            [
              -1.877453105862344,
              52.490303963332295
            ],
            [
              -1.877053703003156,
              52.48670393905323
            ],
            [
              -1.877041602517513,
              52.4862391934128
            ],
            [
              -1.877108182051512,
              52.48577616957576
            ],
            [
              -1.87725272725221,
              52.485319818377455
            ],
            [
              -1.878753289845617,
              52.48161990864884
            ],
            [
              -1.878968342080779,
              52.48118509154127
            ],
            [
              -1.87925416402106,
              52.48076574417557
            ],
            [
              -1.879607835595889,
              52.480366147885654
            ],
            [
              -1.880025744304977,
              52.479990382244374
            ],
            [
              -1.880503622155963,
              52.47964228343198
            ],
            [
              -1.881036589278216,
              52.47932540509261
            ],
            [
              -1.887736472804221,
              52.475725678364036
            ],
            [
              -1.888298989302262,
              52.475451985635644
            ],
            [
              -1.888902556042844,
              52.47521311727543
            ],
            [
              -1.889541411803549,
              52.47501135311323
            ],
            [
              -1.890209458821867,
              52.474848618817276
            ],
            [
              -1.896408931429561,
              52.473548742879494
            ]
          ]
        ]
      },
      "properties": {
        "name": "Phase 1 study area",
        "status": "The area we looked at"
      }
    }
  ]
}
