{"type": "FeatureCollection", "attribution": "Derived from wayfinder placement; basemap (c) OpenStreetMap contributors", "features": [{"type": "Feature", "geometry": {"type": "Point", "coordinates": [-1.89354, 52.482913]}, "properties": {"id": "W1", "type": "Ground marker", "role": "Guide Totem", "heading": "NE", "walkTimeMin": 1.7, "onwardDestinations": "Aston University, Millennium Point", "crossingCaution": "", "form": "marker", "heightM": 0.0, "lon": -1.89354, "lat": 52.482913}}, {"type": "Feature", "geometry": {"type": "Point", "coordinates": [-1.893998, 52.480479]}, "properties": {"id": "W2", "type": "Ground marker", "role": "Guide Totem", "heading": "N", "walkTimeMin": 6.2, "onwardDestinations": "Aston University, Millennium Point", "crossingCaution": "", "form": "marker", "heightM": 0.0, "lon": -1.893998, "lat": 52.480479}}, {"type": "Feature", "geometry": {"type": "Point", "coordinates": [-1.898311, 52.478639]}, "properties": {"id": "W3", "type": "Ground marker", "role": "Light Marker", "heading": "NE", "walkTimeMin": 9.6, "onwardDestinations": "Aston University, Millennium Point", "crossingCaution": "", "form": "marker", "heightM": 0.0, "lon": -1.898311, "lat": 52.478639}}, {"type": "Feature", "geometry": {"type": "Polygon", "coordinates": [[[-1.891771127525524, 52.486004525332376], [-1.8917268724744758, 52.486004525332376], [-1.8917268724744758, 52.48603147466763], [-1.891771127525524, 52.48603147466763], [-1.891771127525524, 52.486004525332376]]]}, "properties": {"id": "W4", "type": "Crossing support", "role": "Dwell No Pavilion", "heading": "S", "walkTimeMin": 3.8, "onwardDestinations": "Aston University, Millennium Point", "crossingCaution": "Major road crossing ahead - use the signalised crossing", "form": "totem", "heightM": 6.0, "lon": -1.891749, "lat": 52.486018}}, {"type": "Feature", "geometry": {"type": "Polygon", "coordinates": [[[-1.898280125057419, 52.48109752533237], [-1.898235874942581, 52.48109752533237], [-1.898235874942581, 52.481124474667624], [-1.898280125057419, 52.481124474667624], [-1.898280125057419, 52.48109752533237]]]}, "properties": {"id": "W5", "type": "Directional totem", "role": "Guide Totem", "heading": "NE", "walkTimeMin": 6.7, "onwardDestinations": "Aston University, Millennium Point", "crossingCaution": "", "form": "totem", "heightM": 6.0, "lon": -1.898258, "lat": 52.481111}}, {"type": "Feature", "geometry": {"type": "Point", "coordinates": [-1.886046, 52.488707]}, "properties": {"id": "W6", "type": "Ground marker", "role": "Dwell No Pavilion", "heading": "SW", "walkTimeMin": 10.8, "onwardDestinations": "Aston University, Millennium Point", "crossingCaution": "", "form": "marker", "heightM": 0.0, "lon": -1.886046, "lat": 52.488707}}, {"type": "Feature", "geometry": {"type": "Point", "coordinates": [-1.897702, 52.483655]}, "properties": {"id": "W7", "type": "Lighting marker", "role": "Light Marker", "heading": "E", "walkTimeMin": 5.8, "onwardDestinations": "Aston University, Millennium Point", "crossingCaution": "", "form": "marker", "heightM": 0.0, "lon": -1.897702, "lat": 52.483655}}, {"type": "Feature", "geometry": {"type": "Polygon", "coordinates": [[[-1.8848271276613484, 52.48627452533238], [-1.8847828723386517, 52.48627452533238], [-1.8847828723386517, 52.48630147466763], [-1.8848271276613484, 52.48630147466763], [-1.8848271276613484, 52.48627452533238]]]}, "properties": {"id": "W8", "type": "Directional totem", "role": "Dwell No Pavilion", "heading": "E", "walkTimeMin": 2.9, "onwardDestinations": "Innovation Birmingham", "crossingCaution": "Major road crossing ahead - use the signalised crossing", "form": "totem", "heightM": 6.0, "lon": -1.884805, "lat": 52.486288}}, {"type": "Feature", "geometry": {"type": "Polygon", "coordinates": [[[-1.8796871291359356, 52.48920552533237], [-1.8796428708640642, 52.48920552533237], [-1.8796428708640642, 52.489232474667624], [-1.8796871291359356, 52.489232474667624], [-1.8796871291359356, 52.48920552533237]]]}, "properties": {"id": "W9", "type": "Crossing support", "role": "Dwell No Pavilion", "heading": "SW", "walkTimeMin": 5.1, "onwardDestinations": "Innovation Birmingham", "crossingCaution": "Major road crossing ahead - use the signalised crossing", "form": "totem", "heightM": 6.0, "lon": -1.879665, "lat": 52.489219}}, {"type": "Feature", "geometry": {"type": "Polygon", "coordinates": [[[-1.8905161289870065, 52.488909525332375], [-1.8904718710129933, 52.488909525332375], [-1.8904718710129933, 52.488936474667625], [-1.8905161289870065, 52.488936474667625], [-1.8905161289870065, 52.488909525332375]]]}, "properties": {"id": "W10", "type": "Crossing support", "role": "Dwell No Pavilion", "heading": "SE", "walkTimeMin": 8.2, "onwardDestinations": "Aston University", "crossingCaution": "Major road crossing ahead - use the signalised crossing", "form": "totem", "heightM": 6.0, "lon": -1.890494, "lat": 52.488923}}, {"type": "Feature", "geometry": {"type": "Point", "coordinates": [-1.88618, 52.482665]}, "properties": {"id": "W11", "type": "Ground marker", "role": "Dwell No Pavilion", "heading": "NE", "walkTimeMin": 0.2, "onwardDestinations": "BCU City Centre, Millennium Point", "crossingCaution": "", "form": "marker", "heightM": 0.0, "lon": -1.88618, "lat": 52.482665}}, {"type": "Feature", "geometry": {"type": "Polygon", "coordinates": [[[-1.8812611267579058, 52.48447852533238], [-1.8812168732420944, 52.48447852533238], [-1.8812168732420944, 52.48450547466763], [-1.8812611267579058, 52.48450547466763], [-1.8812611267579058, 52.48447852533238]]]}, "properties": {"id": "W12", "type": "Crossing support", "role": "Dwell No Pavilion", "heading": "NW", "walkTimeMin": 2.4, "onwardDestinations": "STEAMhouse", "crossingCaution": "Major road crossing ahead - use the signalised crossing", "form": "totem", "heightM": 6.0, "lon": -1.881239, "lat": 52.484492}}]}